LEMUR-2-ANDIS           
1 42838U 17042P   26068.55941107  .00023598  00000+0  79875-3 0  9998
2 42838  97.3659 249.7950 0009101   4.3248 355.8070 15.30557934473198
STARLINK-36065          
1 66898U 25283W   26068.17965560  .00017593  00000+0  60493-3 0  9997
2 66898  53.1607  26.7076 0001235  87.1727 272.9415 15.30188169 15763
